NORAD_CAT_ID,OBJECT_NAME,OBJECT_TYPE,EPOCH,MEAN_MOTION,ECCENTRICITY,INCLINATION,RA_OF_ASC_NODE,ARG_OF_PERICENTER,MEAN_ANOMALY,BSTAR,MEAN_MOTION_DOT,MEAN_MOTION_DDOT,TLE_LINE0,TLE_LINE1,TLE_LINE2,SEMIMAJOR_AXIS,PERIOD,APOGEE,PERIGEE,DECAYED
56809.0,STARLINK-6040,PAYLOAD,2023-11-10 18:28:48,14.99137965,0.000277,69.9999,327.2726,274.4919,85.5924,-8.6153e-05,-1.143e-05,0.0,0 STARLINK-6040,1 56809U 23078AU  23314.77000932 -.00001143  00000-0 -86153-4 0  9997,2 56809  69.9999 327.2726 0002770 274.4919  85.5924 14.99137965 25376,6947.695,96.055,571.485,567.636,0.0
56809.0,STARLINK-6040,PAYLOAD,2023-11-11 04:05:18,14.99136835,0.0002925,69.998,326.2612,274.0532,86.0294,-0.00023315,-2.933e-05,0.0,0 STARLINK-6040,1 56809U 23078AU  23315.17035700 -.00002933  00000-0 -23315-3 0  9991,2 56809  69.9980 326.2612 0002925 274.0532  86.0294 14.99136835 25694,6947.699,96.055,571.596,567.532,0.0
56809.0,STARLINK-6040,PAYLOAD,2023-11-11 10:29:38,14.99137576,0.0002877,69.9989,325.5884,267.7199,92.3631,-0.00023277,-2.929e-05,0.0,0 STARLINK-6040,1 56809U 23078AU  23315.43725207 -.00002929  00000-0 -23277-3 0  9990,2 56809  69.9989 325.5884 0002877 267.7199  92.3631 14.99137576 25474,6947.697,96.055,571.561,567.563,0.0
56809.0,STARLINK-6040,PAYLOAD,2023-11-11 18:30:03,14.99140797,0.000289,69.9989,324.7453,272.9212,87.1616,-0.00018875,-2.393e-05,0.0,0 STARLINK-6040,1 56809U 23078AU  23315.77086878 -.00002393  00000-0 -18875-3 0  9994,2 56809  69.9989 324.7453 0002890 272.9212  87.1616 14.99140797 25784,6947.687,96.055,571.56,567.544,0.0
56809.0,STARLINK-6040,PAYLOAD,2023-11-12 04:06:33,14.99126667,0.0003014,69.9983,323.7357,272.7668,87.3147,-4.6487e-05,-6.6e-06,0.0,0 STARLINK-6040,1 56809U 23078AU  23316.17121932 -.00000660  00000-0 -46487-4 0  9996,2 56809  69.9983 323.7357 0003014 272.7668  87.3147 14.99126667 25840,6947.73,96.056,571.689,567.501,0.0
56809.0,STARLINK-6040,PAYLOAD,2023-11-12 10:30:53,14.99124205,0.0002905,69.9987,323.0619,269.7485,90.3342,-2.3301e-05,-3.77e-06,0.0,0 STARLINK-6040,1 56809U 23078AU  23316.43811826 -.00000377  00000-0 -23301-4 0  9998,2 56809  69.9987 323.0619 0002905 269.7485  90.3342 14.99124205 25622,6947.738,96.056,571.621,567.585,0.0
56809.0,STARLINK-6040,PAYLOAD,2023-11-12 18:31:16,14.99170032,0.0003253,69.9989,322.2198,268.8199,91.2588,-0.00061264,-7.557e-05,0.0,0 STARLINK-6040,1 56809U 23078AU  23316.77172286 -.00007557  00000-0 -61264-3 0  9991,2 56809  69.9989 322.2198 0003253 268.8199  91.2588 14.99170032 25931,6947.596,96.053,571.721,567.201,0.0
56809.0,STARLINK-6040,PAYLOAD,2023-11-13 04:07:47,14.99132748,0.0003163,70.0001,321.2095,275.4485,84.6314,0.00014387,1.659e-05,0.0,0 STARLINK-6040,1 56809U 23078AU  23317.17207542  .00001659  00000-0  14387-3 0  9999,2 56809  70.0001 321.2095 0003163 275.4485  84.6314 14.99132748 25997,6947.712,96.056,571.774,567.379,0.0
56809.0,STARLINK-6040,PAYLOAD,2023-11-13 10:32:06,14.99138965,0.0002927,69.9999,320.5355,275.0026,85.0799,0.00017315,2.017e-05,0.0,0 STARLINK-6040,1 56809U 23078AU  23317.43896725  .00002017  00000-0  17315-3 0  9998,2 56809  69.9999 320.5355 0002927 275.0026  85.0799 14.99138965 25770,6947.692,96.055,571.591,567.524,0.0
56809.0,STARLINK-6040,PAYLOAD,2023-11-14 10:33:20,14.99146714,0.0002885,69.9993,318.0081,271.9907,88.0922,0.00023562,2.779e-05,0.0,0 STARLINK-6040,1 56809U 23078AU  23318.43981618  .00002779  00000-0  23562-3 0  9991,2 56809  69.9993 318.0081 0002885 271.9907  88.0922 14.99146714 26186,6947.668,96.055,571.538,567.529,0.0
56809.0,STARLINK-6040,PAYLOAD,2023-11-14 16:57:39,14.99176393,0.0002767,70.0003,317.3333,276.1819,83.9025,-0.0004305,-5.34e-05,0.0,0 STARLINK-6040,1 56809U 23078AU  23318.70670727 -.00005340  00000-0 -43050-3 0  9990,2 56809  70.0003 317.3333 0002767 276.1819  83.9025 14.99176393 26220,6947.577,96.053,571.364,567.519,0.0
56809.0,STARLINK-6040,PAYLOAD,2023-11-15 04:10:14,14.99149053,0.0002712,70.0003,316.1552,269.1047,90.9802,-2.4547e-05,-3.93e-06,0.0,0 STARLINK-6040,1 56809U 23078AU  23319.17378159 -.00000393  00000-0 -24547-4 0  9990,2 56809  70.0003 316.1552 0002712 269.1047  90.9802 14.99149053 26296,6947.661,96.054,571.41,567.642,0.0
56809.0,STARLINK-6040,PAYLOAD,2023-11-15 08:58:29,14.99142205,0.0002361,70.0007,315.6505,250.2809,109.8096,-1.2796e-05,-2.5e-06,0.0,0 STARLINK-6040,1 56809U 23078AU  23319.37395667 -.00000250  00000-0 -12796-4 0  9990,2 56809  70.0007 315.6505 0002361 250.2809 109.8096 14.99142205 26061,6947.682,96.055,571.188,567.907,0.0
56809.0,STARLINK-6040,PAYLOAD,2023-11-15 16:58:54,14.99143233,0.0002461,70.0008,314.8069,282.9715,77.117,-7.4376e-05,-1e-05,0.0,0 STARLINK-6040,1 56809U 23078AU  23319.70757825 -.00001000  00000-0 -74376-4 0  9991,2 56809  70.0008 314.8069 0002461 282.9715  77.1170 14.99143233 26373,6947.679,96.055,571.254,567.834,0.0
56809.0,STARLINK-6040,PAYLOAD,2023-11-16 08:59:44,14.99138515,0.0002308,70.0007,313.1234,264.845,95.2446,-0.00012939,-1.67e-05,0.0,0 STARLINK-6040,1 56809U 23078AU  23320.37481827 -.00001670  00000-0 -12939-3 0  9991,2 56809  70.0007 313.1234 0002308 264.8450  95.2446 14.99138515 26210,6947.694,96.055,571.162,567.955,0.0
56809.0,STARLINK-6040,PAYLOAD,2023-11-16 17:00:09,14.9914157,0.0001992,70.002,312.2804,295.6092,64.4862,-9.8968e-05,-1.299e-05,0.0,0 STARLINK-6040,1 56809U 23078AU  23320.70843797 -.00001299  00000-0 -98968-4 0  9990,2 56809  70.0020 312.2804 0001992 295.6092  64.4862 14.99141570 26529,6947.684,96.055,570.933,568.165,0.0
56809.0,STARLINK-6040,PAYLOAD,2023-11-17 09:00:58,14.99128129,0.0002077,70.0012,310.5954,278.0885,82.0039,-6.3451e-05,-8.66e-06,0.0,0 STARLINK-6040,1 56809U 23078AU  23321.37568099 -.00000866  00000-0 -63451-4 0  9991,2 56809  70.0012 310.5954 0002077 278.0885  82.0039 14.99128129 26625,6947.726,96.056,571.034,568.148,0.0
56809.0,STARLINK-6040,PAYLOAD,2023-11-17 17:01:33,14.99016619,0.000166,70.0015,309.7526,287.7261,72.3717,-0.0012279,-0.00014975,0.0,0 STARLINK-6040,1 56809U 23078AU  23321.70941979 -.00014975  00000-0 -12279-2 0  9996,2 56809  70.0015 309.7526 0001660 287.7261  72.3717 14.99016619 26675,6948.07,96.063,571.089,568.782,0.0
56809.0,STARLINK-6040,PAYLOAD,2023-11-18 04:14:36,14.98729745,0.0002426,70.0018,308.5771,273.5074,86.5808,-0.0040702,-0.00048822,0.0,0 STARLINK-6040,1 56809U 23078AU  23322.17680657 -.00048822  00000-0 -40702-2 0  9991,2 56809  70.0018 308.5771 0002426 273.5074  86.5808 14.98729745 26749,6948.957,96.081,572.508,569.136,0.0
56809.0,STARLINK-6040,PAYLOAD,2023-11-18 09:02:41,14.98916898,0.0003809,69.9999,308.0724,274.1084,85.964,-0.0018508,-0.00022445,0.0,0 STARLINK-6040,1 56809U 23078AU  23322.37686509 -.00022445  00000-0 -18508-2 0  9997,2 56809  69.9999 308.0724 0003809 274.1084  85.9640 14.98916898 26778,6948.379,96.069,572.89,567.597,0.0
56809.0,STARLINK-6040,PAYLOAD,2023-11-18 17:03:33,14.98679277,0.0003169,69.9998,307.2313,266.3166,93.7631,-0.0050352,-0.00060202,0.0,0 STARLINK-6040,1 56809U 23078AU  23322.71079874 -.00060202  00000-0 -50352-2 0  9992,2 56809  69.9998 307.2313 0003169 266.3166  93.7631 14.98679277 26825,6949.113,96.085,573.18,568.776,0.0
56809.0,STARLINK-6040,PAYLOAD,2023-11-18 21:51:55,14.98615076,0.000295,69.9996,306.7263,258.8138,101.2689,-0.0042781,-0.00051144,0.0,0 STARLINK-6040,1 56809U 23078AU  23322.91105693 -.00051144  00000-0 -42781-2 0  9995,2 56809  69.9996 306.7263 0002950 258.8138 101.2689 14.98615076 26592,6949.311,96.089,573.227,569.126,0.0
56809.0,STARLINK-6040,PAYLOAD,2023-11-19 09:04:44,14.98597644,0.0003033,69.9996,305.5483,269.351,90.7301,-0.0040336,-0.00048225,0.0,0 STARLINK-6040,1 56809U 23078AU  23323.37829291 -.00048225  00000-0 -40336-2 0  9993,2 56809  69.9996 305.5483 0003033 269.3510  90.7301 14.98597644 26927,6949.365,96.09,573.338,569.123,0.0
56809.0,STARLINK-6040,PAYLOAD,2023-11-19 21:53:46,14.98421212,0.0003092,69.9991,304.2025,267.1016,92.9789,-0.0014607,-0.0001752,0.0,0 STARLINK-6040,1 56809U 23078AU  23323.91234081 -.00017520  00000-0 -14607-2 0  9996,2 56809  69.9991 304.2025 0003092 267.1016  92.9789 14.98421212 26743,6949.911,96.101,573.925,569.627,0.0
56809.0,STARLINK-6040,PAYLOAD,2023-11-20 01:06:01,14.98427556,0.0002384,69.9989,303.8647,256.5305,103.5588,-0.0014293,-0.00017148,0.0,0 STARLINK-6040,1 56809U 23078AU  23324.04585066 -.00017148  00000-0 -14293-2 0  9990,2 56809  69.9989 303.8647 0002384 256.5305 103.5588 14.98427556 27026,6949.891,96.101,573.413,570.099,0.0
56809.0,STARLINK-6040,PAYLOAD,2023-11-20 09:06:42,14.98366063,0.0002864,69.9993,303.0243,270.2377,89.8453,-0.00056496,-6.834e-05,0.0,0 STARLINK-6040,1 56809U 23078AU  23324.37965328 -.00006834  00000-0 -56496-3 0  9991,2 56809  69.9993 303.0243 0002864 270.2377  89.8453 14.98366063 27077,6950.081,96.105,573.937,569.956,0.0
56809.0,STARLINK-6040,PAYLOAD,2023-11-20 22:00:00,14.98322507,0.0002992,70.0009,301.6702,265.682,110.2399,0.0031919,0.00038193,0.0,0 STARLINK-6040,1 56809U 23078AU  23324.91667824  .00038193  00000-0  31919-2 0  9994,2 56809  70.0009 301.6702 0002992 265.6820 110.2399 14.98322507 27157,6950.216,96.107,574.161,570.002,0.0
56809.0,STARLINK-6040,PAYLOAD,2023-11-21 06:00:00,14.98268065,0.0003075,70.0008,300.8297,267.1192,106.253,0.0042112,0.00050437,0.0,0 STARLINK-6040,1 56809U 23078AU  23325.25001157  .00050437  00000-0  42112-2 0  9995,2 56809  70.0008 300.8297 0003075 267.1192 106.2530 14.98268065 27204,6950.384,96.111,574.387,570.112,0.0
56809.0,STARLINK-6040,PAYLOAD,2023-11-21 14:00:01,14.98328333,0.0003035,70.0004,299.9893,265.5049,105.2932,-0.0036408,-0.00043266,0.0,0 STARLINK-6040,1 56809U 23078AU  23325.58334491 -.00043266  00000-0 -36408-2 0  9996,2 56809  70.0004 299.9893 0003035 265.5049 105.2932 14.98328333  5597,6950.198,96.107,574.172,569.954,0.0
56809.0,STARLINK-6040,PAYLOAD,2023-11-21 20:00:01,14.98284306,0.0003075,70.0004,299.359,260.0823,18.8203,0.0059738,0.00071836,0.0,0 STARLINK-6040,1 56809U 23078AU  23325.83334491  .00071836  00000-0  59738-2 0  9997,2 56809  70.0004 299.3590 0003075 260.0823  18.8203 14.98284306 27291,6950.334,96.11,574.336,570.062,0.0
